H1 CPF  1  DLR 2021 10 10 10  7832 technosat            
H2  1704205 6203    42829 2021 10 10 00 00 00 2021 10 17 00 00 00    60 1 1  0 0 0
H9
10 0 59500  36000.000000  0       4846890.164      -2622382.275       4260816.235
10 0 59500  36060.000000  0       4548362.269      -2571404.270       4605079.787
10 0 59500  36120.000000  0       4231144.675      -2506879.972       4929767.831
10 0 59500  36180.000000  0       3896692.699      -2428923.571       5233498.288
10 0 59500  36240.000000  0       3546533.595      -2337719.257       5514978.375
10 0 59500  36300.000000  0       3182259.363      -2233520.959       5773010.046
10 0 59500  36360.000000  0       2805519.365      -2116651.753       6006495.031
10 0 59500  36420.000000  0       2418012.680      -1987502.943       6214439.482
10 0 59500  36480.000000  0       2021480.263      -1846532.785       6395958.107
10 0 59500  36540.000000  0       1617697.014      -1694264.865       6550277.872
10 0 59500  36600.000000  0       1208463.667      -1531286.148       6676741.248
10 0 59500  36660.000000  0        795598.634      -1358244.680       6774808.894
10 0 59500  36720.000000  0        380929.861      -1175846.974       6844061.887
10 0 59500  36780.000000  0        -33713.349       -984855.076       6884203.467
10 0 59500  36840.000000  0       -446508.450       -786083.366       6895060.221
10 0 59500  36900.000000  0       -855647.685       -580395.091       6876582.877
10 0 59500  36960.000000  0      -1259346.090       -368698.581       6828846.564
10 0 59500  37020.000000  0      -1655849.337       -151943.213       6752050.531
10 0 59500  37080.000000  0      -2043441.406         68884.852       6646517.423
10 0 59500  37140.000000  0      -2420452.122        292767.187       6512692.041
10 0 59500  37200.000000  0      -2785264.472        518657.804       6351139.583
10 0 59500  37260.000000  0      -3136321.666        745488.044       6162543.402
10 0 59500  37320.000000  0      -3472133.972        972171.654       5947702.302
10 0 59500  37380.000000  0      -3791285.272       1197609.998       5707527.282
10 0 59500  37440.000000  0      -4092439.267       1420697.408       5443037.813
10 0 59500  37500.000000  0      -4374345.348       1640326.632       5155357.614
10 0 59500  37560.000000  0      -4635844.063       1855394.383       4845709.934
10 0 59500  37620.000000  0      -4875872.141       2064806.938       4515412.381
10 0 59500  37680.000000  0      -5093467.070       2267485.739       4165871.307
10 0 59500  37740.000000  0      -5287771.190       2462372.956       3798575.782
10 0 59500  37800.000000  0      -5458035.274       2648437.008       3415091.189
10 0 59500  37860.000000  0      -5603621.625       2824678.038       3017052.475
10 0 59500  37920.000000  0      -5724006.642       2990133.249       2606157.047
10 0 59500  37980.000000  0      -5818782.850       3143882.118       2184157.367
10 0 59500  38040.000000  0      -5887660.388       3285051.476       1752853.233
10 0 59500  38100.000000  0      -5930467.843       3412820.359       1314083.763
10 0 59500  38160.000000  0      -5947152.440       3526424.562        869719.213
10 0 59500  38220.000000  0      -5937779.661       3625160.916        421652.756
10 0 59500  38280.000000  0      -5902532.369       3708391.331        -28207.903
10 0 59500  38340.000000  0      -5841709.255       3775546.444       -477948.996
10 0 59500  38400.000000  0      -5755722.792       3826128.992       -925659.048
10 0 59500  38460.000000  0      -5645096.662       3859716.866      -1369437.375
10 0 59500  38520.000000  0      -5510462.506       3875965.682      -1807402.485
10 0 59500  38580.000000  0      -5352556.167       3874610.944      -2237700.266
10 0 59500  38640.000000  0      -5172213.497       3855469.836      -2658511.953
10 0 59500  38700.000000  0      -4970365.723       3818442.627      -3068061.930
10 0 59500  38760.000000  0      -4748034.334       3763513.597      -3464625.288
10 0 59500  38820.000000  0      -4506325.600       3690751.538      -3846534.986
10 0 59500  38880.000000  0      -4246424.845       3600309.908      -4212188.699
10 0 59500  38940.000000  0      -3969590.391       3492426.568      -4560055.416
10 0 59500  39000.000000  0      -3677147.144       3367423.073      -4888681.589
10 0 59500  39060.000000  0      -3370480.079       3225703.586      -5196696.802
10 0 59500  39120.000000  0      -3051027.611       3067753.457      -5482819.143
10 0 59500  39180.000000  0      -2720274.748       2894137.454      -5745860.222
10 0 59500  39240.000000  0      -2379746.078       2705497.595      -5984729.750
10 0 59500  39300.000000  0      -2030998.671       2502550.609      -6198439.646
10 0 59500  39360.000000  0      -1675614.934       2286085.055      -6386107.665
10 0 59500  39420.000000  0      -1315195.532       2056958.169      -6546960.542
10 0 59500  39480.000000  0       -951352.343       1816092.478      -6680336.795
10 0 59500  39540.000000  0       -585701.371       1564472.046      -6785689.137
10 0 59500  39600.000000  0       -219855.755       1303138.449      -6862586.289
10 0 59500  39660.000000  0        144581.014       1033186.579      -6910714.475
10 0 59500  39720.000000  0        506021.886        755760.199      -6929878.615
10 0 59500  39780.000000  0        862903.011        472047.211      -6920003.031
10 0 59500  39840.000000  0       1213690.326        183274.676      -6881131.607
10 0 59500  39900.000000  0       1556885.897       -109296.329      -6813427.513
10 0 59500  39960.000000  0       1891034.061       -404376.009      -6717172.533
10 0 59500  40020.000000  0       2214727.365       -700651.308      -6592766.081
10 0 59500  40080.000000  0       2526612.407       -996791.593      -6440723.745
10 0 59500  40140.000000  0       2825395.363      -1291454.413      -6261675.302
10 0 59500  40200.000000  0       3109847.201      -1583291.335      -6056362.402
10 0 59500  40260.000000  0       3378808.700      -1870953.915      -5825635.951
10 0 59500  40320.000000  0       3631195.282      -2153099.850      -5570452.997
10 0 59500  40380.000000  0       3866001.483      -2428399.167      -5291873.079
10 0 59500  40440.000000  0       4082305.030      -2695540.428      -4991054.175
10 0 59500  40500.000000  0       4279270.564      -2953236.936      -4669248.235
10 0 59500  40560.000000  0       4456152.981      -3200232.860      -4327796.341
10 0 59500  40620.000000  0       4612300.444      -3435309.335      -3968123.514
10 0 59500  40680.000000  0       4747157.024      -3657290.492      -3591733.100
10 0 59500  40740.000000  0       4860264.913      -3865049.389      -3200200.786
10 0 59500  40800.000000  0       4951266.211      -4057513.813      -2795168.204
10 0 59500  40860.000000  0       5019904.214      -4233671.840      -2378336.193
10 0 59500  40920.000000  0       5066024.268      -4392577.184      -1951457.827
10 0 59500  40980.000000  0       5089574.194      -4533354.370      -1516331.097
10 0 59500  41040.000000  0       5090604.150      -4655203.593      -1074791.307
10 0 59500  41100.000000  0       5069266.019      -4757405.238       -628703.283
10 0 59500  41160.000000  0       5025812.292      -4839324.082       -179953.385
10 0 59500  41220.000000  0       4960594.443      -4900413.077        269558.627
10 0 59500  41280.000000  0       4874060.899      -4940216.729        717927.806
10 0 59500  41340.000000  0       4766754.488      -4958374.046       1163252.356
10 0 59500  41400.000000  0       4639309.370      -4954621.015       1603641.943
10 0 59500  41460.000000  0       4492447.547      -4928792.620       2037225.910
10 0 59500  41520.000000  0       4326975.008      -4880824.406       2462161.434
10 0 59500  41580.000000  0       4143777.473      -4810753.542       2876641.607
10 0 59500  41640.000000  0       3943815.724      -4718719.384       3278903.340
10 0 59500  41700.000000  0       3728120.577      -4604963.528       3667235.073
10 0 59500  41760.000000  0       3497787.540      -4469829.352       4039984.219
10 0 59500  41820.000000  0       3253971.213      -4313761.046       4395564.333
10 0 59500  41880.000000  0       2997879.440      -4137302.137       4732461.980
10 0 59500  41940.000000  0       2730767.241      -3941093.541       5049243.212
10 0 59500  42000.000000  0       2453930.599      -3725871.208       5344559.704
10 0 59500  42060.000000  0       2168700.077      -3492463.251       5617154.580
10 0 59500  42120.000000  0       1876434.267      -3241786.580       5865867.740
10 0 59500  42180.000000  0       1578513.214      -2974843.146       6089640.684
10 0 59500  42240.000000  0       1276331.846      -2692715.841       6287520.934
10 0 59500  42300.000000  0        971293.346      -2396563.998       6458666.038
10 0 59500  42360.000000  0        664802.540      -2087618.507       6602347.050
10 0 59500  42420.000000  0        358259.372      -1767176.622       6717951.506
10 0 59500  42480.000000  0         53052.517      -1436596.467       6804986.014
10 0 59500  42540.000000  0       -249446.975      -1097291.147       6863078.348
10 0 59500  42600.000000  0       -547891.860       -750722.633       6891978.949
10 0 59500  42660.000000  0       -840964.731       -398395.443       6891562.010
10 0 59500  42720.000000  0      -1127383.908        -41850.043       6861826.056
10 0 59500  42780.000000  0      -1405909.101        317343.933       6802893.979
10 0 59500  42840.000000  0      -1675346.824        677594.656       6715012.593
10 0 59500  42900.000000  0      -1934555.582       1037295.188       6598551.687
10 0 59500  42960.000000  0      -2182450.815       1394830.712       6454002.571
10 0 59500  43020.000000  0      -2418009.517       1748585.844       6281976.105
10 0 59500  43080.000000  0      -2640274.553       2096952.008       6083200.278
10 0 59500  43140.000000  0      -2848358.675       2438334.874       5858517.301
99
